[{"OBJECT_NAME":"SWIFT","OBJECT_ID":"2004-047A","EPOCH":"2026-03-09T13:05:14.777952","MEAN_MOTION":15.59259837,"ECCENTRICITY":0.00038418,"INCLINATION":20.5527,"RA_OF_ASC_NODE":228.3012,"ARG_OF_PERICENTER":29.2697,"MEAN_ANOMALY":330.7962,"EPHEMERIS_TYPE":0,"CLASSIFICATION_TYPE":"U","NORAD_CAT_ID":28485,"ELEMENT_SET_NO":999,"REV_AT_EPOCH":17124,"BSTAR":0.00054013449,"MEAN_MOTION_DOT":0.00045338,"MEAN_MOTION_DDOT":0},{"OBJECT_NAME":"ARICA","OBJECT_ID":"2021-102J","EPOCH":"2026-03-09T17:22:30.264960","MEAN_MOTION":15.61729318,"ECCENTRICITY":0.0007799,"INCLINATION":97.3164,"RA_OF_ASC_NODE":130.2851,"ARG_OF_PERICENTER":139.1448,"MEAN_ANOMALY":221.0396,"EPHEMERIS_TYPE":0,"CLASSIFICATION_TYPE":"U","NORAD_CAT_ID":49403,"ELEMENT_SET_NO":999,"REV_AT_EPOCH":24003,"BSTAR":0.00092271929,"MEAN_MOTION_DOT":0.00080266,"MEAN_MOTION_DDOT":0}]
